NORAD_CAT_ID,OBJECT_NAME,OBJECT_TYPE,EPOCH,MEAN_MOTION,ECCENTRICITY,INCLINATION,RA_OF_ASC_NODE,ARG_OF_PERICENTER,MEAN_ANOMALY,BSTAR,MEAN_MOTION_DOT,MEAN_MOTION_DDOT,TLE_LINE0,TLE_LINE1,TLE_LINE2,SEMIMAJOR_AXIS,PERIOD,APOGEE,PERIGEE,DECAYED
52880.0,STARLINK-4186,PAYLOAD,2023-03-03 21:09:19,15.08860677,0.0001169,53.2142,280.3321,79.5136,280.5988,0.00049137,7.545e-05,0.0,0 STARLINK-4186,1 52880U 22062BC  23062.88147040  .00007545  00000-0  49137-3 0  9998,2 52880  53.2142 280.3321 0001169  79.5136 280.5988 15.08860677 40225,6917.817,95.436,540.491,538.873,0.0
52880.0,STARLINK-4186,PAYLOAD,2023-03-04 00:20:05,15.08860458,0.0001243,53.2141,279.7374,81.0122,279.1011,0.00033661,5.076e-05,0.0,0 STARLINK-4186,1 52880U 22062BC  23063.01394839  .00005076  00000-0  33661-3 0  9996,2 52880  53.2141 279.7374 0001243  81.0122 279.1011 15.08860458 39754,6917.818,95.436,540.543,538.823,0.0
52880.0,STARLINK-4186,PAYLOAD,2023-03-05 12:53:58,15.08837747,9.35e-05,53.2148,272.8989,92.6671,267.4428,0.00014738,2.058e-05,0.0,0 STARLINK-4186,1 52880U 22062BC  23064.53747875  .00002058  00000-0  14738-3 0  9997,2 52880  53.2148 272.8989 0000935  92.6671 267.4428 15.08837747 40479,6917.887,95.438,540.399,539.105,0.0
52880.0,STARLINK-4186,PAYLOAD,2023-03-05 20:50:53,15.08843635,0.0001012,53.2145,271.4126,99.5738,260.5368,0.00053469,8.233e-05,0.0,0 STARLINK-4186,1 52880U 22062BC  23064.86867927  .00008233  00000-0  53469-3 0  9999,2 52880  53.2145 271.4126 0001012  99.5738 260.5368 15.08843635 40033,6917.869,95.437,540.434,539.034,0.0
52880.0,STARLINK-4186,PAYLOAD,2023-03-06 00:01:40,15.08848463,9.57e-05,53.2139,270.817,95.4613,264.6488,0.00062546,9.683e-05,0.0,0 STARLINK-4186,1 52880U 22062BC  23065.00115820  .00009683  00000-0  62546-3 0  9990,2 52880  53.2139 270.8170 0000957  95.4613 264.6488 15.08848463 40540,6917.855,95.437,540.382,539.057,0.0
52880.0,STARLINK-4186,PAYLOAD,2023-03-06 15:55:31,15.08839884,0.0001145,53.2139,267.8437,95.7412,264.3711,0.00018096,2.593e-05,0.0,0 STARLINK-4186,1 52880U 22062BC  23065.66356109  .00002593  00000-0  18096-3 0  9993,2 52880  53.2139 267.8437 0001145  95.7412 264.3711 15.08839884 40646,6917.881,95.438,540.538,538.954,0.0
52880.0,STARLINK-4186,PAYLOAD,2023-03-07 12:35:32,15.08843682,0.0001305,53.2143,263.9767,96.5313,263.5828,0.0005178,7.963e-05,0.0,0 STARLINK-4186,1 52880U 22062BC  23066.52467885  .00007963  00000-0  51780-3 0  9996,2 52880  53.2143 263.9767 0001305  96.5313 263.5828 15.08843682 40282,6917.869,95.437,540.637,538.831,0.0
52880.0,STARLINK-4186,PAYLOAD,2023-03-08 14:01:42,15.08848132,0.0002628,53.2124,259.2197,76.7637,283.3648,0.00058926,9.105e-05,0.0,0 STARLINK-4186,1 52880U 22062BC  23067.58452339  .00009105  00000-0  58926-3 0  9990,2 52880  53.2124 259.2197 0002628  76.7637 283.3648 15.08848132 40931,6917.856,95.437,541.539,537.903,0.0
52880.0,STARLINK-4186,PAYLOAD,2023-03-08 18:47:52,15.08843264,0.000246,53.2121,258.3272,76.2515,283.8751,0.00044874,6.861e-05,0.0,0 STARLINK-4186,1 52880U 22062BC  23067.78324375  .00006861  00000-0  44874-3 0  9993,2 52880  53.2121 258.3272 0002460  76.2515 283.8751 15.08843264 40476,6917.87,95.437,541.437,538.034,0.0
52880.0,STARLINK-4186,PAYLOAD,2023-03-09 18:38:39,15.08852576,6.72e-05,53.2134,253.8649,63.2131,296.893,0.0005418,8.348e-05,0.0,0 STARLINK-4186,1 52880U 22062BC  23068.77684133  .00008348  00000-0  54180-3 0  9997,2 52880  53.2134 253.8649 0000672  63.2131 296.8930 15.08852576 41112,6917.842,95.437,540.172,539.242,0.0
52880.0,STARLINK-4186,PAYLOAD,2023-03-10 18:29:26,15.08841546,0.0001639,53.2118,249.4043,88.9674,271.1506,0.00016448,2.331e-05,0.0,0 STARLINK-4186,1 52880U 22062BC  23069.77044538  .00002331  00000-0  16448-3 0  9998,2 52880  53.2118 249.4043 0001639  88.9674 271.1506 15.08841546 41269,6917.876,95.437,540.875,538.607,0.0
52880.0,STARLINK-4186,PAYLOAD,2023-03-10 21:40:12,15.08842715,0.0001357,53.2151,248.8104,90.1217,269.9931,0.00016372,2.319e-05,0.0,0 STARLINK-4186,1 52880U 22062BC  23069.90292475  .00002319  00000-0  16372-3 0  9990,2 52880  53.2151 248.8104 0001357  90.1217 269.9931 15.08842715 40795,6917.872,95.437,540.676,538.798,0.0
52880.0,STARLINK-4186,PAYLOAD,2023-03-11 11:58:41,15.08839679,0.0001489,53.2138,246.1338,92.5131,267.6032,0.00023092,3.389e-05,0.0,0 STARLINK-4186,1 52880U 22062BC  23070.49908748  .00003389  00000-0  23092-3 0  9998,2 52880  53.2138 246.1338 0001489  92.5131 267.6032 15.08839679 40889,6917.881,95.438,540.776,538.716,0.0
52880.0,STARLINK-4186,PAYLOAD,2023-03-11 21:30:59,15.0884577,0.0001267,53.2125,244.3482,89.3898,270.7239,0.00030147,4.514e-05,0.0,0 STARLINK-4186,1 52880U 22062BC  23070.89652544  .00004514  00000-0  30147-3 0  9992,2 52880  53.2125 244.3482 0001267  89.3898 270.7239 15.08845770 40943,6917.863,95.437,540.604,538.851,0.0
52880.0,STARLINK-4186,PAYLOAD,2023-03-12 11:49:28,15.08841717,0.0001187,53.2139,241.6718,89.8149,270.2979,0.00023264,3.417e-05,0.0,0 STARLINK-4186,1 52880U 22062BC  23071.49268812  .00003417  00000-0  23264-3 0  9993,2 52880  53.2139 241.6718 0001187  89.8149 270.2979 15.08841717 41523,6917.875,95.437,540.561,538.919,0.0
52880.0,STARLINK-4186,PAYLOAD,2023-03-13 11:40:15,15.08835918,0.0001236,53.2144,237.2106,100.2474,259.8658,-1.3627e-05,-5.05e-06,0.0,0 STARLINK-4186,1 52880U 22062BC  23072.48628971 -.00000505  00000-0 -13627-4 0  9999,2 52880  53.2144 237.2106 0001236 100.2474 259.8658 15.08835918 41674,6917.893,95.438,540.613,538.903,0.0
52880.0,STARLINK-4186,PAYLOAD,2023-03-13 21:12:34,15.08841602,0.0001278,53.2152,235.4283,98.1638,261.95,0.0001022,1.339e-05,0.0,0 STARLINK-4186,1 52880U 22062BC  23072.88372845  .00001339  00000-0  10220-3 0  9998,2 52880  53.2152 235.4283 0001278  98.1638 261.9500 15.08841602 41242,6917.875,95.437,540.625,538.856,0.0
52880.0,STARLINK-4186,PAYLOAD,2023-03-14 11:31:02,15.08840445,0.0001249,53.2151,232.752,94.8425,265.271,0.00012627,1.722e-05,0.0,0 STARLINK-4186,1 52880U 22062BC  23073.47989101  .00001722  00000-0  12627-3 0  9992,2 52880  53.2151 232.7520 0001249  94.8425 265.2710 15.08840445 41334,6917.879,95.438,540.608,538.88,0.0
52880.0,STARLINK-4186,PAYLOAD,2023-03-14 19:27:57,15.08855823,0.000141,53.2155,231.2646,93.2539,266.8614,0.00030899,4.635e-05,0.0,0 STARLINK-4186,1 52880U 22062BC  23073.81108233  .00004635  00000-0  30899-3 0  9996,2 52880  53.2155 231.2646 0001410  93.2539 266.8614 15.08855823 41875,6917.832,95.437,540.672,538.722,0.0
52880.0,STARLINK-4186,PAYLOAD,2023-03-14 21:03:20,15.08859729,0.0001461,53.2149,230.9667,95.8665,264.2493,0.00045936,7.034e-05,0.0,0 STARLINK-4186,1 52880U 22062BC  23073.87732234  .00007034  00000-0  45936-3 0  9990,2 52880  53.2149 230.9667 0001461  95.8665 264.2493 15.08859729 41394,6917.82,95.436,540.696,538.674,0.0
52880.0,STARLINK-4186,PAYLOAD,2023-03-15 03:24:54,15.08840366,0.0002819,53.215,229.7769,84.9656,275.1658,0.00011173,1.49e-05,0.0,0 STARLINK-4186,1 52880U 22062BC  23074.14229289  .00001490  00000-0  11173-3 0  9998,2 52880  53.2150 229.7769 0002819  84.9656 275.1658 15.08840366 41922,6917.879,95.438,541.694,537.794,0.0
52880.0,STARLINK-4186,PAYLOAD,2023-03-15 09:46:26,15.08843639,0.0001184,53.2147,228.5889,89.9946,270.1182,8.5266e-05,1.07e-05,0.0,0 STARLINK-4186,1 52880U 22062BC  23074.40724624  .00001070  00000-0  85266-4 0  9999,2 52880  53.2147 228.5889 0001184  89.9946 270.1182 15.08843639 41472,6917.869,95.437,540.553,538.915,0.0
52880.0,STARLINK-4186,PAYLOAD,2023-03-15 19:18:44,15.08860678,0.0001719,53.2134,226.8059,83.1746,276.9442,0.00042609,6.503e-05,0.0,0 STARLINK-4186,1 52880U 22062BC  23074.80467907  .00006503  00000-0  42609-3 0  9990,2 52880  53.2134 226.8059 0001719  83.1746 276.9442 15.08860678 42023,6917.817,95.436,540.871,538.493,0.0
52880.0,STARLINK-4186,PAYLOAD,2023-03-16 03:15:39,15.08840235,9.5e-05,53.214,225.3181,109.6719,250.4375,-0.00019887,-3.451e-05,0.0,0 STARLINK-4186,1 52880U 22062BC  23075.13587951 -.00003451  00000-0 -19887-3 0  9992,2 52880  53.2140 225.3181 0000950 109.6719 250.4375 15.08840235 42074,6917.88,95.438,540.402,539.087,0.0
52880.0,STARLINK-4186,PAYLOAD,2023-03-16 12:47:59,15.08836069,0.0001288,53.214,223.5334,98.8729,261.2408,-0.00011661,-2.143e-05,0.0,0 STARLINK-4186,1 52880U 22062BC  23075.53332305 -.00002143  00000-0 -11661-3 0  9996,2 52880  53.2140 223.5334 0001288  98.8729 261.2408 15.08836069 41648,6917.892,95.438,540.648,538.866,0.0
52880.0,STARLINK-4186,PAYLOAD,2023-03-16 19:09:32,15.0882748,0.0001676,53.2168,222.3441,96.3177,263.8006,-0.00020154,-3.493e-05,0.0,0 STARLINK-4186,1 52880U 22062BC  23075.79829402 -.00003493  00000-0 -20154-3 0  9999,2 52880  53.2168 222.3441 0001676  96.3177 263.8006 15.08827480 41688,6917.919,95.438,540.943,538.624,0.0
52880.0,STARLINK-4186,PAYLOAD,2023-03-16 22:20:18,15.0883212,0.0001488,53.2148,221.7477,101.6303,258.4856,5.631e-05,6.08e-06,0.0,0 STARLINK-4186,1 52880U 22062BC  23075.93077318  .00000608  00000-0  56310-4 0  9993,2 52880  53.2148 221.7477 0001488 101.6303 258.4856 15.08832120 42197,6917.904,95.438,540.799,538.74,0.0
52880.0,STARLINK-4186,PAYLOAD,2023-03-17 09:28:01,15.08822599,0.0001113,53.215,219.6681,99.3014,260.8104,2.3533e-06,-2.5e-06,0.0,0 STARLINK-4186,1 52880U 22062BC  23076.39446079 -.00000250  00000-0  23533-5 0  9994,2 52880  53.2150 219.6681 0001113  99.3014 260.8104 15.08822599 42260,6917.934,95.439,540.569,539.029,0.0
52880.0,STARLINK-4186,PAYLOAD,2023-03-17 15:49:33,15.08837982,0.0001461,53.2145,218.4793,86.5879,273.528,0.00025873,3.832e-05,0.0,0 STARLINK-4186,1 52880U 22062BC  23076.65941912  .00003832  00000-0  25873-3 0  9994,2 52880  53.2145 218.4793 0001461  86.5879 273.5280 15.08837982 42301,6917.887,95.438,540.762,538.741,0.0
52880.0,STARLINK-4186,PAYLOAD,2023-03-18 18:51:06,15.08877022,0.0001364,53.2141,213.4224,100.2242,259.8904,0.0012084,0.00019015,0.0,0 STARLINK-4186,1 52880U 22062BC  23077.78548994  .00019015  00000-0  12084-2 0  9991,2 52880  53.2141 213.4224 0001364 100.2242 259.8904 15.08877022 42478,6917.767,95.435,540.576,538.689,0.0
